{
    "links": {
        "self": "http://www.neowsapp.com/rest/v1/neo/3770154?api_key=iIulBulltgU6a56xZRHN4H3l9WmuAYTsLGpBGhQ2"
    },
    "id": "3770154",
    "neo_reference_id": "3770154",
    "name": "(2017 DZ37)",
    "designation": "2017 DZ37",
    "nasa_jpl_url": "http://ssd.jpl.nasa.gov/sbdb.cgi?sstr=3770154",
    "absolute_magnitude_h": 28.6,
    "estimated_diameter": {
        "kilometers": {
            "estimated_diameter_min": 0.0050647146,
            "estimated_diameter_max": 0.0113250461
        },
        "meters": {
            "estimated_diameter_min": 5.0647145883,
            "estimated_diameter_max": 11.3250461062
        },
        "miles": {
            "estimated_diameter_min": 0.0031470668,
            "estimated_diameter_max": 0.0070370552
        },
        "feet": {
            "estimated_diameter_min": 16.61651821,
            "estimated_diameter_max": 37.155664267
        }
    },
    "is_potentially_hazardous_asteroid": false,
    "close_approach_data": [
        {
            "close_approach_date": "1924-10-12",
            "close_approach_date_full": "1924-Oct-12 23:46",
            "epoch_date_close_approach": -1426983240000,
            "relative_velocity": {
                "kilometers_per_second": "20.1944235168",
                "kilometers_per_hour": "72699.9246606366",
                "miles_per_hour": "45172.9059648272"
            },
            "miss_distance": {
                "astronomical": "0.2520383373",
                "lunar": "98.0429132097",
                "kilometers": "37704398.418421551",
                "miles": "23428426.7866213638"
            },
            "orbiting_body": "Earth"
        },
        {
            "close_approach_date": "2011-10-22",
            "close_approach_date_full": "2011-Oct-22 01:43",
            "epoch_date_close_approach": 1319247780000,
            "relative_velocity": {
                "kilometers_per_second": "16.6433530128",
                "kilometers_per_hour": "59916.0708460001",
                "miles_per_hour": "37229.5163542827"
            },
            "miss_distance": {
                "astronomical": "0.1435516935",
                "lunar": "55.8416087715",
                "kilometers": "21475027.582492845",
                "miles": "13343963.371957461"
            },
            "orbiting_body": "Earth"
        },
        {
            "close_approach_date": "2017-02-23",
            "close_approach_date_full": "2017-Feb-23 15:25",
            "epoch_date_close_approach": 1487863500000,
            "relative_velocity": {
                "kilometers_per_second": "13.7789562538",
                "kilometers_per_hour": "49604.242513667",
                "miles_per_hour": "30822.1472441172"
            },
            "miss_distance": {
                "astronomical": "0.0036495009",
                "lunar": "1.4196558501",
                "kilometers": "545957.561203083",
                "miles": "339242.2976572254"
            },
            "orbiting_body": "Moon"
        },
        {
            "close_approach_date": "2017-02-23",
            "close_approach_date_full": "2017-Feb-23 19:46",
            "epoch_date_close_approach": 1487879160000,
            "relative_velocity": {
                "kilometers_per_second": "13.0167808316",
                "kilometers_per_hour": "46860.4109936077",
                "miles_per_hour": "29117.2370421114"
            },
            "miss_distance": {
                "astronomical": "0.002584224",
                "lunar": "1.005263136",
                "kilometers": "386594.40600288",
                "miles": "240218.624804544"
            },
            "orbiting_body": "Earth"
        }
    ],
    "orbital_data": {
        "orbit_id": "2",
        "orbit_determination_date": "2017-04-06 08:19:54",
        "first_observation_date": "2017-02-25",
        "last_observation_date": "2017-02-27",
        "data_arc_in_days": 2,
        "observations_used": 24,
        "orbit_uncertainty": "7",
        "minimum_orbit_intersection": ".00278564",
        "jupiter_tisserand_invariant": "3.756",
        "epoch_osculation": "2459000.5",
        "eccentricity": ".5626159594275243",
        "semi_major_axis": "1.882777290335485",
        "inclination": "4.055380881789749",
        "ascending_node_longitude": "332.9891087503927",
        "orbital_period": "943.6193843364172",
        "perihelion_distance": ".8234967387450316",
        "perihelion_argument": "124.5726880681767",
        "aphelion_distance": "2.942057841925938",
        "perihelion_time": "2458711.973246337238",
        "mean_anomaly": "110.0757710606367",
        "mean_motion": ".3815097548607094",
        "equinox": "J2000",
        "orbit_class": {
            "orbit_class_type": "APO",
            "orbit_class_description": "Near-Earth asteroid orbits which cross the Earth’s orbit similar to that of 1862 Apollo",
            "orbit_class_range": "a (semi-major axis) > 1.0 AU; q (perihelion) < 1.017 AU"
        }
    },
    "is_sentry_object": false
}